{
  "norad_id": 63774,
  "name": "STARLINK-33914",
  "history": [
    {
      "epoch": "2026-03-28T20:31:03.139680Z",
      "apogee_km": 483.9406618862449,
      "perigee_km": 481.9772906616745,
      "latitude_deg": 2.4940800847197516e-05,
      "longitude_deg": 159.03218331291086,
      "height_km": 482.7372157590348,
      "semi_major_axis_km": 6861.095976273959,
      "eccentricity": 0.00014308,
      "inclination_deg": 42.9992,
      "raan_deg": 293.0646,
      "arg_perigee_deg": 269.9062,
      "mean_anomaly_deg": 90.1626,
      "mean_motion_rev_day": 15.27610097
    }
  ]
}