{"fetched_at":"2026-03-29T16:36:15Z","count":15609,"tles":[{"name":"STARLINK-33914","line1":"1 63774U 25089Y   26087.85489745  .00022066  00000+0  80824-3 0  9994","line2":"2 63774  42.9992 293.0646 0001430 269.9062  90.1626 15.27610097 51936","category":"Starlink"}]}